[{"OBJECT_NAME":"COSMOS 2524","OBJECT_ID":"2017-076A","EPOCH":"2026-03-09T23:23:35.640384","MEAN_MOTION":13.97416908,"ECCENTRICITY":0.00095468,"INCLINATION":67.1447,"RA_OF_ASC_NODE":73.9471,"ARG_OF_PERICENTER":248.4451,"MEAN_ANOMALY":111.5616,"EPHEMERIS_TYPE":0,"CLASSIFICATION_TYPE":"U","NORAD_CAT_ID":43032,"ELEMENT_SET_NO":999,"REV_AT_EPOCH":42174,"BSTAR":0.00037957358,"MEAN_MOTION_DOT":4.59e-6,"MEAN_MOTION_DDOT":0},{"OBJECT_NAME":"CZ-2C R\/B","OBJECT_ID":"2004-046B","EPOCH":"2026-03-09T18:23:06.573984","MEAN_MOTION":14.26992119,"ECCENTRICITY":0.01398857,"INCLINATION":98.1983,"RA_OF_ASC_NODE":343.7453,"ARG_OF_PERICENTER":154.2177,"MEAN_ANOMALY":206.6065,"EPHEMERIS_TYPE":0,"CLASSIFICATION_TYPE":"U","NORAD_CAT_ID":28480,"ELEMENT_SET_NO":999,"REV_AT_EPOCH":10851,"BSTAR":7.4431342e-5,"MEAN_MOTION_DOT":1.61e-6,"MEAN_MOTION_DDOT":0}]
